0 IRIDIUM 33 DEB
1 37557U 97051XS  13282.01728356  .00002747  00000-0  14302-2 0  2194
2 37557 086.3981 167.3348 0157496 229.2207 129.5153 14.08143393215350
0 IRIDIUM 33 DEB
1 37557U 97051XS  13286.99144941  .00003180  00000-0  16583-2 0  2215
2 37557 086.3970 165.3311 0156390 213.8637 145.2484 14.08177025216053
0 IRIDIUM 33 DEB
1 37557U 97051XS  13289.97590119  .00003776  00000-0  19613-2 0  2227
2 37557 086.3919 164.1205 0159206 203.1531 156.3629 14.08204092216474
0 IRIDIUM 33 DEB
1 37557U 97051XS  13291.39702304  .00003929  00000-0  20390-2 0  2232
2 37557 086.4000 163.5657 0159705 198.5535 160.9884 14.08216333216672
0 IRIDIUM 33 DEB
1 37557U 97051XS  13293.38660694  .00004210  00000-0  21895-2 0  2244
2 37557 086.3996 162.7675 0158294 192.6352 167.1018 14.08235156216953
0 IRIDIUM 33 DEB
1 37557U 97051XS  13295.37616257  .00004372  00000-0  22779-2 0  2253
2 37557 086.4022 161.9797 0156849 186.1965 173.7071 14.08253008217232
